NORAD_CAT_ID,OBJECT_NAME,OBJECT_TYPE,EPOCH,MEAN_MOTION,ECCENTRICITY,INCLINATION,RA_OF_ASC_NODE,ARG_OF_PERICENTER,MEAN_ANOMALY,BSTAR,MEAN_MOTION_DOT,MEAN_MOTION_DDOT,TLE_LINE0,TLE_LINE1,TLE_LINE2,SEMIMAJOR_AXIS,PERIOD,APOGEE,PERIGEE,DECAYED
53562.0,STARLINK-4565,PAYLOAD,2023-12-17 14:18:31,15.08841195,0.0001321,53.2174,104.3877,83.7373,276.3769,4.7458e-05,4.67e-06,0.0,0 STARLINK-4565,1 53562U 22101AM  23351.59620303  .00000467  00000-0  47458-4 0  9998,2 53562  53.2174 104.3877 0001321  83.7373 276.3769 15.08841195 74354,6917.877,95.437,540.656,538.828,0.0
53562.0,STARLINK-4565,PAYLOAD,2023-12-18 10:58:31,15.08852168,0.0001373,53.2178,100.5183,100.6787,259.436,6.3436e-05,7.22e-06,0.0,0 STARLINK-4565,1 53562U 22101AM  23352.45731302  .00000722  00000-0  63436-4 0  9994,2 53562  53.2178 100.5183 0001373 100.6787 259.4360 15.08852168 73823,6917.843,95.437,540.658,538.758,0.0
53562.0,STARLINK-4565,PAYLOAD,2023-12-18 14:09:17,15.08856556,0.0001401,53.2184,99.9218,99.6577,260.4573,0.00010119,1.324e-05,0.0,0 STARLINK-4565,1 53562U 22101AM  23352.58978826  .00001324  00000-0  10119-3 0  9990,2 53562  53.2184  99.9218 0001401  99.6577 260.4573 15.08856556 74505,6917.83,95.437,540.664,538.726,0.0
53562.0,STARLINK-4565,PAYLOAD,2023-12-19 10:49:19,15.08841574,0.0001454,53.218,96.056,112.5443,247.5703,1.5665e-05,-3.9e-07,0.0,0 STARLINK-4565,1 53562U 22101AM  23353.45091891 -.00000039  00000-0  15665-4 0  9990,2 53562  53.2180  96.0560 0001454 112.5443 247.5703 15.08841574 73979,6917.876,95.437,540.746,538.735,0.0
53562.0,STARLINK-4565,PAYLOAD,2023-12-19 14:00:05,15.08841334,0.0001181,53.2179,95.4635,88.0262,272.0866,1.456e-05,-5.6e-07,0.0,0 STARLINK-4565,1 53562U 22101AM  23353.58340011 -.00000056  00000-0  14560-4 0  9997,2 53562  53.2179  95.4635 0001181  88.0262 272.0866 15.08841334 74659,6917.876,95.437,540.558,538.924,0.0
53562.0,STARLINK-4565,PAYLOAD,2023-12-20 10:40:07,15.08837068,0.0001244,53.2183,91.5988,80.5805,279.5328,-0.00013711,-2.469e-05,0.0,0 STARLINK-4565,1 53562U 22101AM  23354.44453024 -.00002469  00000-0 -13711-3 0  9999,2 53562  53.2183  91.5988 0001244  80.5805 279.5328 15.08837068 74128,6917.889,95.438,540.615,538.894,0.0
53562.0,STARLINK-4565,PAYLOAD,2023-12-20 12:15:30,15.08838825,0.0001257,53.2183,91.3017,81.0862,279.0273,-0.00012807,-2.325e-05,0.0,0 STARLINK-4565,1 53562U 22101AM  23354.51076892 -.00002325  00000-0 -12807-3 0  9997,2 53562  53.2183  91.3017 0001257  81.0862 279.0273 15.08838825 74791,6917.884,95.438,540.619,538.879,0.0
53562.0,STARLINK-4565,PAYLOAD,2023-12-21 12:06:17,15.08841032,0.000133,53.2195,86.8519,96.3668,263.7475,0.00012982,1.779e-05,0.0,0 STARLINK-4565,1 53562U 22101AM  23355.50436453  .00001779  00000-0  12982-3 0  9994,2 53562  53.2195  86.8519 0001330  96.3668 263.7475 15.08841032 74287,6917.877,95.437,540.662,538.822,0.0
53562.0,STARLINK-4565,PAYLOAD,2023-12-21 13:41:39,15.08845554,0.0001306,53.2186,86.5476,76.3789,283.7348,0.00016556,2.348e-05,0.0,0 STARLINK-4565,1 53562U 22101AM  23355.57060156  .00002348  00000-0  16556-3 0  9998,2 53562  53.2186  86.5476 0001306  76.3789 283.7348 15.08845554 74959,6917.863,95.437,540.632,538.825,0.0
53562.0,STARLINK-4565,PAYLOAD,2023-12-22 13:32:27,15.08841743,0.0001825,53.2185,82.0855,68.1697,291.9489,0.00013644,1.884e-05,0.0,0 STARLINK-4565,1 53562U 22101AM  23356.56420973  .00001884  00000-0  13644-3 0  9994,2 53562  53.2185  82.0855 0001825  68.1697 291.9489 15.08841743 75104,6917.875,95.437,541.003,538.478,0.0
53562.0,STARLINK-4565,PAYLOAD,2023-12-23 11:47:52,15.08841663,0.0001551,53.218,77.9238,77.0806,283.036,-2.2934e-05,-6.53e-06,0.0,0 STARLINK-4565,1 53562U 22101AM  23357.49157429 -.00000653  00000-0 -22934-4 0  9998,2 53562  53.2180  77.9238 0001551  77.0806 283.0360 15.08841663 74586,6917.875,95.437,540.813,538.667,0.0
53562.0,STARLINK-4565,PAYLOAD,2023-12-24 11:38:38,15.08849114,0.0001584,53.2176,73.4625,81.0208,279.0963,0.00016276,2.304e-05,0.0,0 STARLINK-4565,1 53562U 22101AM  23358.48516896  .00002304  00000-0  16276-3 0  9999,2 53562  53.2176  73.4625 0001584  81.0208 279.0963 15.08849114 75392,6917.853,95.437,540.813,538.622,0.0
53562.0,STARLINK-4565,PAYLOAD,2023-12-25 11:29:25,15.08845602,0.0001541,53.2184,69.0007,94.672,265.4448,0.00011749,1.583e-05,0.0,0 STARLINK-4565,1 53562U 22101AM  23359.47876909  .00001583  00000-0  11749-3 0  9991,2 53562  53.2184  69.0007 0001541  94.6720 265.4448 15.08845602 74886,6917.863,95.437,540.794,538.662,0.0
53562.0,STARLINK-4565,PAYLOAD,2023-12-26 11:20:12,15.08842212,0.0001675,53.2184,64.5414,109.9866,250.1307,-9.9032e-06,-4.46e-06,0.0,0 STARLINK-4565,1 53562U 22101AM  23360.47237190 -.00000446  00000-0 -99032-5 0  9998,2 53562  53.2184  64.5414 0001675 109.9866 250.1307 15.08842212 75034,6917.874,95.437,540.897,538.58,0.0
53562.0,STARLINK-4565,PAYLOAD,2023-12-27 11:11:00,15.08815685,0.0001858,53.2184,60.0809,112.5238,247.5951,0.00040675,6.187e-05,0.0,0 STARLINK-4565,1 53562U 22101AM  23361.46597792  .00006187  00000-0  40675-3 0  9998,2 53562  53.2184  60.0809 0001858 112.5238 247.5951 15.08815685 75184,6917.955,95.439,541.105,538.534,0.0
53562.0,STARLINK-4565,PAYLOAD,2023-12-28 11:01:47,15.08836865,0.0002031,53.219,55.6225,114.1468,245.9737,6.3013e-05,7.15e-06,0.0,0 STARLINK-4565,1 53562U 22101AM  23362.45957810  .00000715  00000-0  63013-4 0  9992,2 53562  53.2190  55.6225 0002031 114.1468 245.9737 15.08836865 75334,6917.89,95.438,541.16,538.35,0.0
53562.0,STARLINK-4565,PAYLOAD,2023-12-29 10:52:34,15.08840394,0.0001514,53.2185,51.1568,91.9475,268.1691,5.566e-05,5.98e-06,0.0,0 STARLINK-4565,1 53562U 22101AM  23363.45317912  .00000598  00000-0  55660-4 0  9994,2 53562  53.2185  51.1568 0001514  91.9475 268.1691 15.08840394 76142,6917.879,95.438,540.792,538.697,0.0
53562.0,STARLINK-4565,PAYLOAD,2023-12-30 10:43:22,15.08797433,0.0001946,53.2195,46.698,77.3833,282.7376,0.00072083,0.00011189,0.0,0 STARLINK-4565,1 53562U 22101AM  23364.44678787  .00011189  00000-0  72083-3 0  9999,2 53562  53.2195  46.6980 0001946  77.3833 282.7376 15.08797433 75635,6918.011,95.44,541.222,538.529,0.0
53562.0,STARLINK-4565,PAYLOAD,2023-12-30 12:18:45,15.08805287,0.0001972,53.2197,46.3954,75.7066,284.4145,0.0006708,0.00010394,0.0,0 STARLINK-4565,1 53562U 22101AM  23364.51302602  .00010394  00000-0  67080-3 0  9995,2 53562  53.2197  46.3954 0001972  75.7066 284.4145 15.08805287 76309,6917.986,95.44,541.216,538.487,0.0
53562.0,STARLINK-4565,PAYLOAD,2023-12-31 02:37:13,15.08835966,0.0001963,53.2189,43.7288,71.5335,288.587,2.1479e-05,5.4e-07,0.0,0 STARLINK-4565,1 53562U 22101AM  23365.10918682  .00000054  00000-0  21479-4 0  9997,2 53562  53.2189  43.7288 0001963  71.5335 288.5870 15.08835966 75737,6917.893,95.438,541.116,538.4,0.0
53562.0,STARLINK-4565,PAYLOAD,2023-12-31 07:23:23,15.08836952,0.0001766,53.2185,42.8318,95.7138,264.4056,1.2187e-05,-9.4e-07,0.0,0 STARLINK-4565,1 53562U 22101AM  23365.30790546 -.00000094  00000-0  12187-4 0  9997,2 53562  53.2185  42.8318 0001766  95.7138 264.4056 15.08836952 76429,6917.89,95.438,540.976,538.533,0.0
53562.0,STARLINK-4565,PAYLOAD,2024-01-01 12:00:18,15.08852669,0.00015,53.2181,37.4798,90.1809,269.9355,7.0298e-05,8.31e-06,0.0,0 STARLINK-4565,1 53562U 22101AM  24001.50021364  .00000831  00000-0  70298-4 0  9997,2 53562  53.2181  37.4798 0001500  90.1809 269.9355 15.08852669 75948,6917.842,95.437,540.744,538.669,0.0
53562.0,STARLINK-4565,PAYLOAD,2024-01-02 02:18:47,15.08837286,0.000142,53.2167,34.8011,92.4998,267.6157,2.5761e-05,1.22e-06,0.0,0 STARLINK-4565,1 53562U 22101AM  24002.09638403  .00000122  00000-0  25761-4 0  9998,2 53562  53.2167  34.8011 0001420  92.4998 267.6157 15.08837286 76030,6917.889,95.438,540.736,538.771,0.0
53562.0,STARLINK-4565,PAYLOAD,2024-01-02 08:40:19,15.0884043,0.0001563,53.2172,33.6148,83.278,276.839,7.5114e-05,9.08e-06,0.0,0 STARLINK-4565,1 53562U 22101AM  24002.36134180  .00000908  00000-0  75114-4 0  9990,2 53562  53.2172  33.6148 0001563  83.2780 276.8390 15.08840430 76732,6917.879,95.438,540.825,538.663,0.0
53562.0,STARLINK-4565,PAYLOAD,2024-01-03 11:41:53,15.0884037,0.0001575,53.2174,28.5596,106.597,253.5196,-6.6845e-05,-1.352e-05,0.0,0 STARLINK-4565,1 53562U 22101AM  24003.48742591 -.00001352  00000-0 -66845-4 0  9992,2 53562  53.2174  28.5596 0001575 106.5970 253.5196 15.08840370 76242,6917.879,95.438,540.834,538.655,0.0
53562.0,STARLINK-4565,PAYLOAD,2024-01-04 05:11:08,15.08834638,0.0001497,53.2174,25.2882,98.6859,261.4302,5.7826e-05,6.32e-06,0.0,0 STARLINK-4565,1 53562U 22101AM  24004.21606753  .00000632  00000-0  57826-4 0  9990,2 53562  53.2174  25.2882 0001497  98.6859 261.4302 15.08834638 77017,6917.897,95.438,540.797,538.726,0.0
53562.0,STARLINK-4565,PAYLOAD,2024-01-04 06:46:31,15.08836952,0.0001507,53.2173,24.991,97.3781,262.7382,4.35e-05,4.04e-06,0.0,0 STARLINK-4565,1 53562U 22101AM  24004.28230666  .00000404  00000-0  43500-4 0  9994,2 53562  53.2173  24.9910 0001507  97.3781 262.7382 15.08836952 77020,6917.89,95.438,540.797,538.712,0.0
53562.0,STARLINK-4565,PAYLOAD,2024-01-05 05:01:55,15.08834768,0.0001486,53.2174,20.8275,97.3245,262.7916,9.0566e-05,1.153e-05,0.0,0 STARLINK-4565,1 53562U 22101AM  24005.20966895  .00001153  00000-0  90566-4 0  9993,2 53562  53.2174  20.8275 0001486  97.3245 262.7916 15.08834768 76509,6917.896,95.438,540.789,538.733,0.0
53562.0,STARLINK-4565,PAYLOAD,2024-01-05 08:12:41,15.08837871,0.0001457,53.2175,20.2329,93.735,266.3808,0.00011394,1.526e-05,0.0,0 STARLINK-4565,1 53562U 22101AM  24005.34214720  .00001526  00000-0  11394-3 0  9996,2 53562  53.2175  20.2329 0001457  93.7350 266.3808 15.08837871 77182,6917.887,95.438,540.76,538.744,0.0
53562.0,STARLINK-4565,PAYLOAD,2024-01-06 09:38:51,15.08840075,0.0001421,53.2174,15.4753,86.7615,273.354,5.9931e-05,6.66e-06,0.0,0 STARLINK-4565,1 53562U 22101AM  24006.40198948  .00000666  00000-0  59931-4 0  9991,2 53562  53.2174  15.4753 0001421  86.7615 273.3540 15.08840075 76680,6917.88,95.438,540.728,538.762,0.0
